COMMENT,ORIGINATOR,NORAD_CAT_ID,OBJECT_NAME,OBJECT_TYPE,CLASSIFICATION_TYPE,INTLDES,EPOCH,EPOCH_MICROSECONDS,MEAN_MOTION,ECCENTRICITY,INCLINATION,RA_OF_ASC_NODE,ARG_OF_PERICENTER,MEAN_ANOMALY,EPHEMERIS_TYPE,ELEMENT_SET_NO,REV_AT_EPOCH,BSTAR,MEAN_MOTION_DOT,MEAN_MOTION_DDOT,FILE,TLE_LINE0,TLE_LINE1,TLE_LINE2,OBJECT_ID,OBJECT_NUMBER,SEMIMAJOR_AXIS,PERIOD,APOGEE,PERIGEE
"GENERATED VIA SPACETRACK.ORG API","JSPOC","23949","TURKSAT 1C","PAYLOAD","U","96040B","2016-01-08 13:16:14","185344","1.00164358","0.0005467","6.2904","55.0117","133.4456","199.8865","0","999","7142","0","-1.31e-06","0","1977819","0 TURKSAT 1C","1 23949U 96040B   16008.55294196 -.00000131  00000-0  00000+0 0  9997","2 23949   6.2904  55.0117 0005467 133.4456 199.8865  1.00164358 71425","1996-040B","23949","42194.874","1437.637","35839.807","35793.671"
"GENERATED VIA SPACETRACK.ORG API","JSPOC","13090","SL-6 R/B(2)","ROCKET BODY","U","82016D","2016-01-08 13:16:14","842848","2.03142908","0.6574768","65.861","212.8653","41.2363","63.9358","0","999","25111","0","-5.36e-06","0","1978186","0 SL-6 R/B(2)","1 13090U 82016D   16008.55294957 -.00000536 +00000-0 +00000-0 0  9996","2 13090 065.8610 212.8653 6574768 041.2363 063.9358 02.03142908251113","1982-016D","13090","26335.044","708.860","37271.591","2642.228"
"GENERATED VIA SPACETRACK.ORG API","JSPOC","24435","EXPRESS 2","PAYLOAD","U","96058A","2016-01-08 13:16:17","478912","1.00212901","0.0009287","13.8183","28.1835","238.6037","123.1404","0","999","7058","0","-1.67e-06","0","1978186","0 EXPRESS 2","1 24435U 96058A   16008.55298008 -.00000167 +00000-0 +00000-0 0  9993","2 24435 013.8183 028.1835 0009287 238.6037 123.1404 01.00212901070587","1996-058A","24435","42181.247","1436.940","35842.286","35763.938"
"GENERATED VIA SPACETRACK.ORG API","JSPOC","22910","SL-12 R/B(2)","ROCKET BODY","U","93072D","2016-01-08 13:16:23","405088","1.03166335","0.001618","13.7599","18.7343","71.0833","303.9881","0","999","8342","0","-1.82e-06","0","1978186","0 SL-12 R/B(2)","1 22910U 93072D   16008.55304867 -.00000182 +00000-0 +00000-0 0  9990","2 22910 013.7599 018.7343 0016180 071.0833 303.9881 01.03166335083421","1993-072D","22910","41372.316","1395.804","35061.122","34927.241"
"GENERATED VIA SPACETRACK.ORG API","JSPOC","20953","GORIZONT 22","PAYLOAD","U","90102A","2016-01-08 13:16:24","64320","1.00157548","0.0005626","14.8852","11.1577","234.3837","148.5279","0","999","9217","0","-1.94e-06","0","1977783","0 GORIZONT 22","1 20953U 90102A   16008.55305630 -.00000194  00000-0  00000+0 0  9997","2 20953  14.8852  11.1577 0005626 234.3837 148.5279  1.00157548 92176","1990-102A","20953","42196.787","1437.734","35842.392","35794.912"
"GENERATED VIA SPACETRACK.ORG API","JSPOC","25638","ARABSAT 3A","PAYLOAD","U","99009A","2016-01-08 13:16:26","40288","1.00116612","0.0007535","5.8612","57.2688","227.106","109.7713","0","999","6177","0","-1.74e-06","0","1978186","0 ARABSAT 3A","1 25638U 99009A   16008.55307917 -.00000174 +00000-0 +00000-0 0  9996","2 25638 005.8612 057.2688 0007535 227.1060 109.7713 01.00116612061779","1999-009A","25638","42208.288","1438.322","35861.957","35798.349"
"GENERATED VIA SPACETRACK.ORG API","JSPOC","21132","RADUGA 27","PAYLOAD","U","91014A","2016-01-08 13:16:28","674624","1.00171986","0.0002019","15.4426","12.1485","207.8491","176.325","0","999","9107","0","-2.17e-06","0","1977783","0 RADUGA 27","1 21132U 91014A   16008.55310966 -.00000217  00000-0  00000+0 0  9994","2 21132  15.4426  12.1485 0002019 207.8491 176.3250  1.00171986 91071","1991-014A","21132","42192.732","1437.527","35823.116","35806.078"
"GENERATED VIA SPACETRACK.ORG API","JSPOC","18351","EUTELSAT 1-F4 (ECS 4)","PAYLOAD","U","87078B","2016-01-08 13:16:35","919264","0.98686709","0.0010089","15.2654","15.1915","280.665","103.8714","0","999","8911","0","-3.5e-07","0","1977772","0 EUTELSAT 1-F4 (ECS 4)","1 18351U 87078B   16008.55319351 -.00000035  00000-0  00000+0 0  9993","2 18351  15.2654  15.1915 0010089 280.6650 103.8714  0.98686709 89116","1987-078B","18351","42615.023","1459.163","36279.882","36193.894"
"GENERATED VIA SPACETRACK.ORG API","JSPOC","38038","ZY 1","PAYLOAD","U","11079A","2016-01-08 13:16:43","963104","14.35415954","6.75e-05","98.4092","81.6957","102.7632","257.3629","0","999","21209","5.8758e-05","1.26e-06","0","1977611","0 ZY 1","1 38038U 11079A   16008.55328661  .00000126  00000-0  58758-4 0  9997","2 38038  98.4092  81.6957 0000675 102.7632 257.3629 14.35415954212090","2011-079A","38038","7151.821","100.319","774.169","773.203"
"GENERATED VIA SPACETRACK.ORG API","JSPOC","24894","COSMOS 2345","PAYLOAD","U","97041A","2016-01-08 13:16:47","775072","1.00155866","0.01682","13.1186","30.9117","201.2927","172.4136","0","999","6744","0","-3.25e-06","0","1978186","0 COSMOS 2345","1 24894U 97041A   16008.55333073 -.00000325 +00000-0 +00000-0 0  9993","2 24894 013.1186 030.9117 0168200 201.2927 172.4136 01.00155866067447","1997-041A","24894","42197.259","1437.759","36528.882","35109.366"
"GENERATED VIA SPACETRACK.ORG API","JSPOC","22981","RADUGA 1-3","PAYLOAD","U","94008A","2016-01-08 13:16:49","92672","1.00253275","0.0003056","14.4599","22.2588","192.5288","191.3258","0","999","8025","0","-3.06e-06","0","1978186","0 RADUGA 1-3","1 22981U 94008A   16008.55334598 -.00000306 +00000-0 +00000-0 0  9990","2 22981 014.4599 022.2588 0003056 192.5288 191.3258 01.00253275080251","1994-008A","22981","42169.921","1436.362","35804.673","35778.899"
"GENERATED VIA SPACETRACK.ORG API","JSPOC","33064","ORBCOMM FM 37","PAYLOAD","U","08031E","2016-01-08 13:16:51","365856","14.72268143","0.0006238","48.4435","19.8433","105.6561","39.0565","0","999","40584","6.7388e-05","2.3e-06","0","1977846","0 ORBCOMM FM 37","1 33064U 08031E   16008.55337229  .00000230  00000-0  67388-4 0  9990","2 33064  48.4435  19.8433 0006238 105.6561  39.0565 14.72268143405844","2008-031E","33064","7031.973","97.808","658.225","649.452"
"GENERATED VIA SPACETRACK.ORG API","JSPOC","24208","ITALSAT 2","PAYLOAD","U","96044A","2016-01-08 13:16:57","654048","1.00788741","0.0020675","11.1691","38.0244","51.8327","320.0718","0","999","7120","0","-3.57e-06","0","1978186","0 ITALSAT 2","1 24208U 96044A   16008.55344507 -.00000357 +00000-0 +00000-0 0  9993","2 24208 011.1691 038.0244 0020675 051.8327 320.0718 01.00788741071201","1996-044A","24208","42020.430","1428.731","35729.172","35555.417"
"GENERATED VIA SPACETRACK.ORG API","JSPOC","19217","PAS 1","PAYLOAD","U","88051C","2016-01-08 13:16:58","970784","0.9938949","0.0006682","12.2242","36.3139","228.1501","145.8375","0","999","11028","0","-1.69e-06","0","1977862","0 PAS 1","1 19217U 88051C   16008.55346031 -.00000169  00000-0  00000+0 0  9990","2 19217  12.2242  36.3139 0006682 228.1501 145.8375  0.99389490110287","1988-051C","19217","42413.899","1448.845","36064.105","36007.423"
"GENERATED VIA SPACETRACK.ORG API","JSPOC","27462","ARIANE 5 R/B","ROCKET BODY","U","02035C","2016-01-08 13:16:58","970784","2.22669688","0.7168093","5.5011","65.7559","175.4418","134.8998","0","999","10996","-0.0013394","-9.5e-07","0","1978186","0 ARIANE 5 R/B","1 27462U 02035C   16008.55346031 -.00000095 +00000-0 -13394-2 0  9991","2 27462 005.5011 065.7559 7168093 175.4418 134.8998 02.22669688109962","2002-035C","27462","24772.002","646.697","36150.668","637.065"
"GENERATED VIA SPACETRACK.ORG API","JSPOC","20706","DFS 2","PAYLOAD","U","90063B","2016-01-08 13:17:00","946752","0.99545176","0.0006342","12.3803","35.5975","212.533","163.0564","0","999","8496","0","-2.06e-06","0","1977783","0 DFS 2","1 20706U 90063B   16008.55348318 -.00000206  00000-0  00000+0 0  9993","2 20706  12.3803  35.5975 0006342 212.5330 163.0564  0.99545176 84967","1990-063B","20706","42369.664","1446.579","36018.400","35964.659"
"GENERATED VIA SPACETRACK.ORG API","JSPOC","41194","GAOFEN 4","PAYLOAD","U","15083A","2016-01-08 13:17:04","898688","1.00273062","4.23e-05","0.5828","268.36","19.5452","124.9319","0","999","25","0","-3.28e-06","0","1977749","0 GAOFEN 4","1 41194U 15083A   16008.55352892 -.00000328  00000-0  00000+0 0  9993","2 41194   0.5828 268.3600 0000423  19.5452 124.9319  1.00273062   251","2015-083A","41194","42164.373","1436.078","35788.022","35784.455"
"GENERATED VIA SPACETRACK.ORG API","JSPOC","26372","GORIZONT 33","PAYLOAD","U","00029A","2016-01-08 13:17:10","168224","1.00370757","0.0002647","11.2733","37.5635","182.5027","195.3931","0","999","5720","0","-3.59e-06","0","1978186","0 GORIZONT 33","1 26372U 00029A   16008.55358991 -.00000359 +00000-0 +00000-0 0  9999","2 26372 011.2733 037.5635 0002647 182.5027 195.3931 01.00370757057207","2000-029A","26372","42137.009","1434.680","35770.027","35747.720"
"GENERATED VIA SPACETRACK.ORG API","JSPOC","23683","SL-12 R/B(2)","ROCKET BODY","U","95054D","2016-01-08 13:17:14","777664","1.00352926","0.0016813","13.402","33.4823","355.7602","28.6975","0","999","7415","0","-3.64e-06","0","1977779","0 SL-12 R/B(2)","1 23683U 95054D   16008.55364326 -.00000364  00000-0  00000+0 0  9997","2 23683  13.4020  33.4823 0016813 355.7602  28.6975  1.00352926 74156","1995-054D","23683","42142.000","1434.935","35834.718","35693.012"
"GENERATED VIA SPACETRACK.ORG API","JSPOC","20713","ATLAS 1 CENTAUR R/B","ROCKET BODY","U","90065B","2016-01-08 13:17:21","544512","2.68654014","0.6914319","17.576","183.6024","18.6331","357.5167","0","999","23909","0.00022357","3.99e-06","0","1977653","0 ATLAS 1 CENTAUR R/B","1 20713U 90065B   16008.55372158  .00000399  00000-0  22357-3 0  9997","2 20713  17.5760 183.6024 6914319  18.6331 357.5167  2.68654014239093","1990-065B","20713","21857.791","536.005","30592.831","366.482"
